0 TVSAT 1
1 18570U 87095A   13287.07031504 -.00000255  00000-0  10000-3 0  8380
2 18570 014.8169 008.9774 0058519 013.8942 346.2586 00.98920015 83067
0 TVSAT 1
1 18570U 87095A   13288.08121642 -.00000246  00000-0  10000-3 0  8396
2 18570 014.8175 008.9666 0058082 013.3185 346.8278 00.98919601 83077
0 TVSAT 1
1 18570U 87095A   13288.08121650 -.00000246  00000-0  10000-3 0  8407
2 18570 014.8178 008.9670 0058519 013.9233 346.2296 00.98919620 83075
0 TVSAT 1
1 18570U 87095A   13294.14657603 -.00000127  00000-0  10000-3 0  8412
2 18570 014.8211 008.9044 0058025 013.5575 346.5839 00.98917458 83135
